#cP2017 10 22  0  0  0.00000000      96 ORBIT IGS14 HLM  IGS
## 1972      0.00000000   900.00000000 58048 0.0000000000000
+   32   G01G02G03G04G05G06G07G08G09G10G11G12G13G14G15G16G17
+        G18G19G20G21G22G23G24G25G26G27G28G29G30G31G32  0  0
+          0  0  0  0  0  0  0  0  0  0  0  0  0  0  0  0  0
+          0  0  0  0  0  0  0  0  0  0  0  0  0  0  0  0  0
+          0  0  0  0  0  0  0  0  0  0  0  0  0  0  0  0  0
++         2  2  2  0  2  2  2  2  3  2  2  2  2  2  2  2  2
++         2  2  2  2  2  2  2  2  2  2  2  2  2  2  3  0  0
++         0  0  0  0  0  0  0  0  0  0  0  0  0  0  0  0  0
++         0  0  0  0  0  0  0  0  0  0  0  0  0  0  0  0  0
++         0  0  0  0  0  0  0  0  0  0  0  0  0  0  0  0  0
%c G  cc GPS ccc cccc cccc cccc cccc ccccc ccccc ccccc ccccc
%c cc cc ccc ccc cccc cccc cccc cccc ccccc ccccc ccccc ccccc
%f  1.2500000  1.025000000  0.00000000000  0.000000000000000
%f  0.0000000  0.000000000  0.00000000000  0.000000000000000
%i    0    0    0    0      0      0      0      0         0
%i    0    0    0    0      0      0      0      0         0
/* RAPID ORBIT COMBINATION FROM WEIGHTED AVERAGE OF:        
/* cod emr esa gfz jpl ngs sio usn whu                      
/* REFERENCED TO IGS TIME (IGST) AND TO WEIGHTED MEAN POLE: 
/* PCV:IGS14_1967 OL/AL:FES2004  NONE     Y  ORB:CMB CLK:CMB
*  2017 10 22 22 30  0.00000000
PG01 -13489.219926   9902.489525  20423.430961     -5.753058  5  9  3 140       
PG02  13938.583383  14511.094352 -16965.345462    299.786663  9  6  5 107       
PG03 -22790.384067  13443.971716   1983.791861    -52.475352  7  5  8 116       
PG04 -22088.100017 -13682.857562  -6917.620728 999999.999999
PG05  19565.573672   2243.819193 -18013.290607    -25.153177 10  7  6 152       
PG06   7340.518509  24116.700554  -8334.773353    405.997885  8  5  8  93       
PG07  -6617.472355  22977.458779 -10873.470355    289.686909  8  8  3 121       
PG08 -24338.862391  -4105.293948  10003.333558    -77.943123  3  6  8 109       
PG09  -8611.600554  12870.939154 -21608.926048    461.586004  6  6  8 125       
PG10   1217.986947 -17548.519512  19883.567437     94.722281  4  5  5  93       
PG11 -15487.026701   5064.979569  20401.440044   -722.679372  6  9  6 142       
PG12  23939.785709  -9845.136344   5308.668200    368.018187  7  4  7 123       
PG13  23406.905396  11707.424363   4342.114097    -93.091846  9  5  6 121       
PG14 -15876.745515 -18459.054929  11090.123904    -86.848295  8  8  7 127       
PG15  24116.154527    611.116516  11342.068187   -356.787754  8  5  5 115       
PG16 -19387.166553  -2963.678338 -18233.993155     36.805230 10  8  7  95       
PG17   7798.491446  18227.343363  18120.748307   -149.329386  7  4  5 116       
PG18  10731.582649 -20512.665391  13448.061613    631.742157  3  5  4  99       
PG19  15028.102228  18377.003838  11397.520972   -479.770824  7  7  6 103       
PG20  22707.293501 -12020.628642  -6831.886736    490.519783  9  9  5 109       
PG21   2808.798730 -25046.879959  -7467.107563   -468.854606  8  6  6 107       
PG22 -23431.188372   8180.634991   9743.940845   -163.832387  8  9  6  96       
PG23 -18769.808402   5351.158965 -17942.359309   -218.279972  7  6  7  96       
PG24  14567.880603  -6968.551465  20957.626723    -41.249634  7  6  5 135       
PG25  18868.375584 -17499.386624  -6246.171592   -477.110283  7  4  7 110       
PG26 -11212.111012 -10710.873218 -21565.023516   -388.092503  9  8  7 102       
PG27 -23492.847468 -12581.770836  -1391.138124    340.037016  7  5  8 122       
PG28  -6007.915192  17869.347253  19349.574765    656.257607  6  4  6  99       
PG29  13379.862136  -8670.562673 -21249.339357    547.807111  6  9  9 105       
PG30   -327.123299  26468.973680   -687.719379    133.013566  6  3  6  99       
PG31  -8294.711275 -22476.038447 -10953.776896    167.101025  8  6  7 139       
PG32 -11063.970419 -18012.548388  16141.429049   -516.088443  7  6  9  93       
*  2017 10 22 22 45  0.00000000
PG01 -13787.121673   7503.917319  21249.259018     -5.755081  6  9  3 139       
PG02  14031.540105  16434.660339 -15116.381117    299.778175 10  6  6 116       
PG03 -22621.321529  13006.969757   4805.671102    -52.470810  8  5  8 112       
PG04 -21164.978946 -13578.156950  -9527.765997 999999.999999
PG05  17940.836779   3613.727075 -19415.923108    -25.151953 10  8  6 151       
PG06   7197.968258  24934.455318  -5613.880052    405.999783  8  5  9 110       
PG07  -6971.010520  21575.883032 -13261.953430    289.682541  7  8  3 117       
PG08 -25155.097060  -4692.525403   7374.857248    -77.944238  4  6  8 107       
PG09 -10831.203799  11845.162196 -21193.276974    461.590696  6  7  9 130       
PG10   3078.171300 -18727.366070  18549.609194     94.729901  4  5  6  74       
PG11 -16599.467919   2881.156805  19948.720620   -722.680934  7  9  6 140       
PG12  23369.169561  -9270.453412   8091.708186    368.017065  7  3  7 119       
PG13  23583.218234  12084.566801   1493.272172    -93.091356  9  5  6 123       
PG14 -14595.015767 -17969.248890  13448.676394    -86.849057  8  7  7 124       
PG15  25124.872666   1279.536105   8907.571670   -356.787865  7  4  6 122       
PG16 -17596.447373  -4116.342370 -19738.713994     36.805099 10  8  6 104       
PG17   5908.225170  17350.236624  19649.923447   -149.326729  7  5  5 112       
PG18  11961.012953 -21118.831865  11163.200877    631.742754  5  5  5 100       
PG19  13647.506583  17796.618198  13771.805028   -479.768658  7  7  5 111       
PG20  22231.711331 -11173.362632  -9408.671381    490.520491  9  9  5 114       
PG21   3264.558230 -23994.415314 -10035.834468   -468.851241  8  7  6 117       
PG22 -22656.490559   7183.934019  12125.678080   -163.843582  9  9  6 106       
PG23 -20524.324086   4393.101754 -16263.747628   -218.280079  7  6  8 105       
PG24  14945.174451  -4547.328833  21375.028914    -41.248632  8  6  6 135       
PG25  19435.359709 -17629.186459  -3418.566735   -477.115979  7  4  8  96       
PG26  -9220.998614 -12186.701557 -21715.261411   -388.081236  9  8  7 122       
PG27 -23128.557032 -12628.032943  -4240.824510    340.040714  8  5  9 128       
PG28  -7769.580632  18815.343322  17701.545983    656.260841  7  4  7  95       
PG29  15442.556535  -7505.182570 -20269.939993    547.802936  6  9  9 105       
PG30   -643.186828  26238.563446  -3509.297917    133.011289  6  3  6 108       
PG31  -8120.871275 -23614.351488  -8367.100423    167.099150  7  6  8 126       
PG32  -9225.686663 -17365.082734  17906.899667   -516.092206  8  5  9 108       
*  2017 10 22 23  0  0.00000000
PG01 -14221.614138   5054.379525  21703.553092     -5.757038  6  9  3 144       
PG02  14175.342349  18124.155820 -13001.646163    299.769652 10  6  7 115       
PG03 -22229.518248  12364.228869   7544.581527    -52.466252  8  6  8 120       
PG04 -19965.877641 -13445.877190 -11979.885775 999999.999999
PG05  16279.633717   5153.723263 -20488.977650    -25.150801 10  8  5 152       
PG06   7049.778383  25448.550666  -2796.280721    406.001707  9  5  9 109       
PG07  -7430.254345  19936.244527 -15414.514859    289.677866  6  9  2 108       
PG08 -25716.785041  -5129.158265   4620.452318    -77.944895  6  6  9 114       
PG09 -13037.076849  10957.709923 -20413.987531    461.595408  6  8  9 134       
PG10   4744.198722 -19895.076377  16895.662452     94.737681  3  4  6 101       
PG11 -17762.220712    807.020308  19134.778641   -722.682841  7 10  6 142       
PG12  22579.011225  -8483.754540  10733.102152    368.015317  8  3  7 118       
PG13  23492.614052  12299.375527  -1381.336638    -93.093221  9  5  7 125       
PG14 -13063.485473 -17439.320458  15581.240793    -86.849666  9  7  7 131       
PG15  25894.023736   1814.901438   6321.927602   -356.788224  6  4  6 123       
PG16 -15748.906358  -5456.492092 -20911.371830     36.804910 10  9  5 101       
PG17   3832.834759  16519.723965  20852.546883   -149.324795  7  5  5 121       
PG18  12967.494926 -21605.171002   8689.569657    631.742761  7  5  6 101       
PG19  12005.031898  17176.309345  15902.487400   -479.766881  7  7  5 106       
PG20  21596.044772 -10109.462332 -11824.279254    490.521838  9  9  4 102       
PG21   3831.199641 -22682.314529 -12424.836785   -468.848346  8  7  6 156       
PG22 -21738.513527   5984.776493  14301.592036   -163.855365  8 10  6 118       
PG23 -22128.405548   3598.895219 -14304.999752   -218.280366  6  6  7  99       
PG24  15445.199280  -2124.210027  21421.089444    -41.248177  8  6  6 140       
PG25  19741.637034 -17585.021136   -531.480921   -477.121669  8  5  8 108       
PG26  -7311.073131 -13761.242651 -21491.579394   -388.070012  9  8  7 122       
PG27 -22470.970357 -12581.337885  -7018.584874    340.044461  8  5  9 122       
PG28  -9313.246837  19750.083498  15762.771483    656.263429  7  4  8 105       
PG29  17447.750448  -6510.207243 -18941.919113    547.798577  6  9  9 120       
PG30  -1000.777305  25709.034597  -6269.926085    133.008979  6  4  6 108       
PG31  -7968.722408 -24458.305538  -5632.727715    167.096928  6  6  8 133       
PG32  -7185.742334 -16749.210816  19365.440599   -516.095948  8  5  9  97       
EOF
